{
  "type": "FeatureCollection",
  "features": [
    {
      "type": "Feature",
      "properties": {
        "norad_id": 66655,
        "name": "2025-274F",
        "group": "last-30-days",
        "lat": -60.02444631039644,
        "lon": -71.2544745800113,
        "alt_km": 600.5287853934933,
        "timestamp": "2025-12-13T22:39:28.445015+00:00",
        "meta_object_name": "2025-274F",
        "meta_object_id": "2025-274F",
        "meta_epoch": "2025-12-12T19:33:04.273920",
        "meta_mean_motion": 14.91089281,
        "meta_eccentricity": 0.00054102,
        "meta_inclination": 97.7325,
        "meta_ra_of_asc_node": 274.0134,
        "meta_arg_of_pericenter": 14.8803,
        "meta_mean_anomaly": 345.2574,
        "meta_ephemeris_type": 0,
        "meta_classification_type": "U",
        "meta_norad_cat_id": 66655,
        "meta_element_set_no": 999,
        "meta_rev_at_epoch": 241,
        "meta_bstar": 2.464325e-05,
        "meta_mean_motion_dot": 1.89e-06,
        "meta_mean_motion_ddot": 0,
        "tle_line1": "1 66655U 25274F   25346.81463280  .00000189  00000+0  24643-4 0  9990",
        "tle_line2": "2 66655  97.7325 274.0134 0005410  14.8803 345.2574 14.91089281  2418"
      },
      "geometry": {
        "type": "Point",
        "coordinates": [
          -71.2544745800113,
          -60.02444631039644
        ]
      }
    },
    {
      "type": "Feature",
      "properties": {
        "norad_id": 66656,
        "name": "2025-274G",
        "group": "last-30-days",
        "lat": -48.161186126183125,
        "lon": -76.13939613476037,
        "alt_km": 593.2045136129464,
        "timestamp": "2025-12-13T22:39:28.445025+00:00",
        "meta_object_name": "2025-274G",
        "meta_object_id": "2025-274G",
        "meta_epoch": "2025-12-13T06:46:59.756448",
        "meta_mean_motion": 14.92281987,
        "meta_eccentricity": 0.00123082,
        "meta_inclination": 97.7385,
        "meta_ra_of_asc_node": 274.4749,
        "meta_arg_of_pericenter": 254.8031,
        "meta_mean_anomaly": 105.1827,
        "meta_ephemeris_type": 0,
        "meta_classification_type": "U",
        "meta_norad_cat_id": 66656,
        "meta_element_set_no": 999,
        "meta_rev_at_epoch": 248,
        "meta_bstar": 0.0005605214,
        "meta_mean_motion_dot": 5.676e-05,
        "meta_mean_motion_ddot": 0,
        "tle_line1": "1 66656U 25274G   25347.28263607  .00005676  00000+0  56052-3 0  9998",
        "tle_line2": "2 66656  97.7385 274.4749 0012308 254.8031 105.1827 14.92281987  2483"
      },
      "geometry": {
        "type": "Point",
        "coordinates": [
          -76.13939613476037,
          -48.161186126183125
        ]
      }
    },
    {
      "type": "Feature",
      "properties": {
        "norad_id": 66657,
        "name": "SPIRONE",
        "group": "last-30-days",
        "lat": -37.28191817095644,
        "lon": -78.92936270958631,
        "alt_km": 591.9643208165144,
        "timestamp": "2025-12-13T22:39:28.445037+00:00",
        "meta_object_name": "SPIRONE",
        "meta_object_id": "2025-274H",
        "meta_epoch": "2025-12-13T06:44:08.020032",
        "meta_mean_motion": 14.92460436,
        "meta_eccentricity": 0.00106178,
        "meta_inclination": 97.7381,
        "meta_ra_of_asc_node": 274.477,
        "meta_arg_of_pericenter": 273.9871,
        "meta_mean_anomaly": 86.0134,
        "meta_ephemeris_type": 0,
        "meta_classification_type": "U",
        "meta_norad_cat_id": 66657,
        "meta_element_set_no": 999,
        "meta_rev_at_epoch": 248,
        "meta_bstar": 0.00053388828,
        "meta_mean_motion_dot": 5.426e-05,
        "meta_mean_motion_ddot": 0,
        "tle_line1": "1 66657U 25274H   25347.28064838  .00005426  00000+0  53389-3 0  9997",
        "tle_line2": "2 66657  97.7381 274.4770 0010617 273.9871  86.0134 14.92460436  2485"
      },
      "geometry": {
        "type": "Point",
        "coordinates": [
          -78.92936270958631,
          -37.28191817095644
        ]
      }
    },
    {
      "type": "Feature",
      "properties": {
        "norad_id": 66658,
        "name": "2025-274J",
        "group": "last-30-days",
        "lat": -26.62969668243785,
        "lon": -80.95679929699575,
        "alt_km": 591.3964548506638,
        "timestamp": "2025-12-13T22:39:28.445049+00:00",
        "meta_object_name": "2025-274J",
        "meta_object_id": "2025-274J",
        "meta_epoch": "2025-12-13T06:41:20.904288",
        "meta_mean_motion": 14.92630391,
        "meta_eccentricity": 0.00112261,
        "meta_inclination": 97.7383,
        "meta_ra_of_asc_node": 274.4797,
        "meta_arg_of_pericenter": 276.8376,
        "meta_mean_anomaly": 83.1566,
        "meta_ephemeris_type": 0,
        "meta_classification_type": "U",
        "meta_norad_cat_id": 66658,
        "meta_element_set_no": 999,
        "meta_rev_at_epoch": 248,
        "meta_bstar": 0.00049566659,
        "meta_mean_motion_dot": 5.055e-05,
        "meta_mean_motion_ddot": 0,
        "tle_line1": "1 66658U 25274J   25347.27871417  .00005055  00000+0  49567-3 0  9997",
        "tle_line2": "2 66658  97.7383 274.4797 0011226 276.8376  83.1566 14.92630391  2482"
      },
      "geometry": {
        "type": "Point",
        "coordinates": [
          -80.95679929699575,
          -26.62969668243785
        ]
      }
    },
    {
      "type": "Feature",
      "properties": {
        "norad_id": 66659,
        "name": "JACK K",
        "group": "last-30-days",
        "lat": -15.21908824210295,
        "lon": -82.74093193419368,
        "alt_km": 590.8844888091671,
        "timestamp": "2025-12-13T22:39:28.445060+00:00",
        "meta_object_name": "JACK K",
        "meta_object_id": "2025-274K",
        "meta_epoch": "2025-12-13T06:38:22.553088",
        "meta_mean_motion": 14.92815185,
        "meta_eccentricity": 0.00119755,
        "meta_inclination": 97.7384,
        "meta_ra_of_asc_node": 274.4828,
        "meta_arg_of_pericenter": 278.3305,
        "meta_mean_anomaly": 81.6557,
        "meta_ephemeris_type": 0,
        "meta_classification_type": "U",
        "meta_norad_cat_id": 66659,
        "meta_element_set_no": 999,
        "meta_rev_at_epoch": 248,
        "meta_bstar": 0.00049079798,
        "meta_mean_motion_dot": 5.029e-05,
        "meta_mean_motion_ddot": 0,
        "tle_line1": "1 66659U 25274K   25347.27664992  .00005029  00000+0  49080-3 0  9997",
        "tle_line2": "2 66659  97.7384 274.4828 0011975 278.3305  81.6557 14.92815185  2488"
      },
      "geometry": {
        "type": "Point",
        "coordinates": [
          -82.74093193419368,
          -15.21908824210295
        ]
      }
    },
    {
      "type": "Feature",
      "properties": {
        "norad_id": 66660,
        "name": "K-HERO",
        "group": "last-30-days",
        "lat": -5.995083954428912,
        "lon": -84.0380812885354,
        "alt_km": 590.5607777005343,
        "timestamp": "2025-12-13T22:39:28.445070+00:00",
        "meta_object_name": "K-HERO",
        "meta_object_id": "2025-274L",
        "meta_epoch": "2025-12-13T06:35:58.576992",
        "meta_mean_motion": 14.92964209,
        "meta_eccentricity": 0.00126091,
        "meta_inclination": 97.7389,
        "meta_ra_of_asc_node": 274.4856,
        "meta_arg_of_pericenter": 278.7788,
        "meta_mean_anomaly": 81.2003,
        "meta_ephemeris_type": 0,
        "meta_classification_type": "U",
        "meta_norad_cat_id": 66660,
        "meta_element_set_no": 999,
        "meta_rev_at_epoch": 248,
        "meta_bstar": 0.00044690856,
        "meta_mean_motion_dot": 4.592e-05,
        "meta_mean_motion_ddot": 0,
        "tle_line1": "1 66660U 25274L   25347.27498353  .00004592  00000+0  44691-3 0  9992",
        "tle_line2": "2 66660  97.7389 274.4856 0012609 278.7788  81.2003 14.92964209  2484"
      },
      "geometry": {
        "type": "Point",
        "coordinates": [
          -84.0380812885354,
          -5.995083954428912
        ]
      }
    },
    {
      "type": "Feature",
      "properties": {
        "norad_id": 66661,
        "name": "SNUGLITE-III",
        "group": "last-30-days",
        "lat": 3.133271955900125,
        "lon": -85.27942883026242,
        "alt_km": 590.1366603600645,
        "timestamp": "2025-12-13T22:39:28.445084+00:00",
        "meta_object_name": "SNUGLITE-III",
        "meta_object_id": "2025-274M",
        "meta_epoch": "2025-12-13T06:33:35.841600",
        "meta_mean_motion": 14.93102902,
        "meta_eccentricity": 0.00133143,
        "meta_inclination": 97.7385,
        "meta_ra_of_asc_node": 274.4873,
        "meta_arg_of_pericenter": 280.0036,
        "meta_mean_anomaly": 79.968,
        "meta_ephemeris_type": 0,
        "meta_classification_type": "U",
        "meta_norad_cat_id": 66661,
        "meta_element_set_no": 999,
        "meta_rev_at_epoch": 248,
        "meta_bstar": 0.00041218628,
        "meta_mean_motion_dot": 4.246e-05,
        "meta_mean_motion_ddot": 0,
        "tle_line1": "1 66661U 25274M   25347.27333150  .00004246  00000+0  41219-3 0  9995",
        "tle_line2": "2 66661  97.7385 274.4873 0013314 280.0036  79.9680 14.93102902  2486"
      },
      "geometry": {
        "type": "Point",
        "coordinates": [
          -85.27942883026242,
          3.133271955900125
        ]
      }
    }
  ]
}